CELESTIS-17 & SHERPA-FX1
1 47486U 21006CB  26068.64311433  .00007207  00000+0  24301-3 0  9993
2 47486  97.2397 112.1052 0006630 178.1385 181.9882 15.30994801284065
STARLINK-30556          
1 58031U 23156D   26068.25197209 -.00000564  00000+0 -69054-5 0  9996
2 58031  53.1604  90.4239 0001273 102.6624 257.4520 15.30189725136094
